[
    {
      "Year": 2013,
      "Month": "Jan",
      "postalcode": 180001,
      "one_two": "-",
      "three": 296.9,
      "four": 310.4,
      "five_exec": "-",
      "subzone": "BUGIS",
      "region": "CENTRAL"
    },
    {
      "Year": 2013,
      "Month": "Jan",
      "postalcode": 180232,
      "one_two": "-",
      "three": "-",
      "four": 347,
      "five_exec": "-",
      "subzone": "BUGIS",
      "region": "CENTRAL"
    },
    {
      "Year": 2013,
      "Month": "Jan",
      "postalcode": 180233,
      "one_two": "-",
      "three": "-",
      "four": 370.7,
      "five_exec": "-",
      "subzone": "BUGIS",
      "region": "CENTRAL"
    },
    {
      "Year": 2013,
      "Month": "Jan",
      "postalcode": 181004,
      "one_two": "-",
      "three": 278,
      "four": 497.2,
      "five_exec": "-",
      "subzone": "BUGIS",
      "region": "CENTRAL"
    },
    {
      "Year": 2013,
      "Month": "Jan",
      "postalcode": 190001,
      "one_two": "-",
      "three": 317,
      "four": "-",
      "five_exec": "-",
      "subzone": "CITY HALL",
      "region": "CENTRAL"
    },
    {
      "Year": 2013,
      "Month": "Feb",
      "postalcode": 180001,
      "one_two": "-",
      "three": 306.5,
      "four": 329.8,
      "five_exec": "-",
      "subzone": "BUGIS",
      "region": "CENTRAL"
    },
    {
      "Year": 2013,
      "Month": "Feb",
      "postalcode": 180232,
      "one_two": "-",
      "three": "-",
      "four": 268.6,
      "five_exec": "-",
      "subzone": "BUGIS",
      "region": "CENTRAL"
    },
    {
      "Year": 2013,
      "Month": "Feb",
      "postalcode": 180233,
      "one_two": "-",
      "three": "-",
      "four": 294.7,
      "five_exec": "-",
      "subzone": "BUGIS",
      "region": "CENTRAL"
    },
    {
      "Year": 2013,
      "Month": "Feb",
      "postalcode": 181004,
      "one_two": "-",
      "three": 309.7,
      "four": 489.5,
      "five_exec": "-",
      "subzone": "BUGIS",
      "region": "CENTRAL"
    },
    {
      "Year": 2013,
      "Month": "Feb",
      "postalcode": 190001,
      "one_two": "-",
      "three": 324.9,
      "four": "-",
      "five_exec": "-",
      "subzone": "CITY HALL",
      "region": "CENTRAL"
    },
    {
      "Year": 2013,
      "Month": "Mar",
      "postalcode": 180001,
      "one_two": "-",
      "three": 250.1,
      "four": 260.8,
      "five_exec": "-",
      "subzone": "BUGIS",
      "region": "CENTRAL"
    },
    {
      "Year": 2013,
      "Month": "Mar",
      "postalcode": 180232,
      "one_two": "-",
      "three": "-",
      "four": 315.1,
      "five_exec": "-",
      "subzone": "BUGIS",
      "region": "CENTRAL"
    },
    {
      "Year": 2013,
      "Month": "Mar",
      "postalcode": 180233,
      "one_two": "-",
      "three": "-",
      "four": 358.6,
      "five_exec": "-",
      "subzone": "BUGIS",
      "region": "CENTRAL"
    },
    {
      "Year": 2013,
      "Month": "Mar",
      "postalcode": 181004,
      "one_two": "-",
      "three": 258.6,
      "four": 335.1,
      "five_exec": "-",
      "subzone": "BUGIS",
      "region": "CENTRAL"
    },
    {
      "Year": 2013,
      "Month": "Mar",
      "postalcode": 190001,
      "one_two": "-",
      "three": 324.7,
      "four": "-",
      "five_exec": "-",
      "subzone": "CITY HALL",
      "region": "CENTRAL"
    },
    {
      "Year": 2013,
      "Month": "Apr",
      "postalcode": 180001,
      "one_two": "-",
      "three": 288.5,
      "four": 312.5,
      "five_exec": "-",
      "subzone": "BUGIS",
      "region": "CENTRAL"
    },
    {
      "Year": 2013,
      "Month": "Apr",
      "postalcode": 180232,
      "one_two": "-",
      "three": "-",
      "four": 369.8,
      "five_exec": "-",
      "subzone": "BUGIS",
      "region": "CENTRAL"
    },
    {
      "Year": 2013,
      "Month": "Apr",
      "postalcode": 180233,
      "one_two": "-",
      "three": "-",
      "four": 422.9,
      "five_exec": "-",
      "subzone": "BUGIS",
      "region": "CENTRAL"
    },
    {
      "Year": 2013,
      "Month": "Apr",
      "postalcode": 181004,
      "one_two": "-",
      "three": 301.8,
      "four": 433.2,
      "five_exec": "-",
      "subzone": "BUGIS",
      "region": "CENTRAL"
    },
    {
      "Year": 2013,
      "Month": "Apr",
      "postalcode": 190001,
      "one_two": "-",
      "three": 298.3,
      "four": "-",
      "five_exec": "-",
      "subzone": "CITY HALL",
      "region": "CENTRAL"
    },
    {
      "Year": 2013,
      "Month": "May",
      "postalcode": 180001,
      "one_two": "-",
      "three": 373.5,
      "four": 420.2,
      "five_exec": "-",
      "subzone": "BUGIS",
      "region": "CENTRAL"
    },
    {
      "Year": 2013,
      "Month": "May",
      "postalcode": 180232,
      "one_two": "-",
      "three": "-",
      "four": 333.6,
      "five_exec": "-",
      "subzone": "BUGIS",
      "region": "CENTRAL"
    },
    {
      "Year": 2013,
      "Month": "May",
      "postalcode": 180233,
      "one_two": "-",
      "three": "-",
      "four": 380.4,
      "five_exec": "-",
      "subzone": "BUGIS",
      "region": "CENTRAL"
    },
    {
      "Year": 2013,
      "Month": "May",
      "postalcode": 181004,
      "one_two": "-",
      "three": 445.9,
      "four": 490.2,
      "five_exec": "-",
      "subzone": "BUGIS",
      "region": "CENTRAL"
    },
    {
      "Year": 2013,
      "Month": "May",
      "postalcode": 190001,
      "one_two": "-",
      "three": 365.7,
      "four": "-",
      "five_exec": "-",
      "subzone": "CITY HALL",
      "region": "CENTRAL"
    },
    {
      "Year": 2013,
      "Month": "Jun",
      "postalcode": 180001,
      "one_two": "-",
      "three": 339.7,
      "four": 383.7,
      "five_exec": "-",
      "subzone": "BUGIS",
      "region": "CENTRAL"
    },
    {
      "Year": 2013,
      "Month": "Jun",
      "postalcode": 180232,
      "one_two": "-",
      "three": "-",
      "four": 423,
      "five_exec": "-",
      "subzone": "BUGIS",
      "region": "CENTRAL"
    },
    {
      "Year": 2013,
      "Month": "Jun",
      "postalcode": 180233,
      "one_two": "-",
      "three": "-",
      "four": 461.9,
      "five_exec": "-",
      "subzone": "BUGIS",
      "region": "CENTRAL"
    },
    {
      "Year": 2013,
      "Month": "Jun",
      "postalcode": 181004,
      "one_two": "-",
      "three": 375.3,
      "four": 468.2,
      "five_exec": "-",
      "subzone": "BUGIS",
      "region": "CENTRAL"
    },
    {
      "Year": 2013,
      "Month": "Jun",
      "postalcode": 190001,
      "one_two": "-",
      "three": 373.6,
      "four": "-",
      "five_exec": "-",
      "subzone": "CITY HALL",
      "region": "CENTRAL"
    },
    {
      "Year": 2013,
      "Month": "Jul",
      "postalcode": 180001,
      "one_two": "-",
      "three": 337.9,
      "four": 359.1,
      "five_exec": "-",
      "subzone": "BUGIS",
      "region": "CENTRAL"
    },
    {
      "Year": 2013,
      "Month": "Jul",
      "postalcode": 180232,
      "one_two": "-",
      "three": "-",
      "four": 369.6,
      "five_exec": "-",
      "subzone": "BUGIS",
      "region": "CENTRAL"
    },
    {
      "Year": 2013,
      "Month": "Jul",
      "postalcode": 180233,
      "one_two": "-",
      "three": "-",
      "four": 411.2,
      "five_exec": "-",
      "subzone": "BUGIS",
      "region": "CENTRAL"
    },
    {
      "Year": 2013,
      "Month": "Jul",
      "postalcode": 181004,
      "one_two": "-",
      "three": 360.5,
      "four": 432.7,
      "five_exec": "-",
      "subzone": "BUGIS",
      "region": "CENTRAL"
    },
    {
      "Year": 2013,
      "Month": "Jul",
      "postalcode": 190001,
      "one_two": "-",
      "three": 361.5,
      "four": "-",
      "five_exec": "-",
      "subzone": "CITY HALL",
      "region": "CENTRAL"
    },
    {
      "Year": 2013,
      "Month": "Aug",
      "postalcode": 180001,
      "one_two": "-",
      "three": 383.5,
      "four": 416.1,
      "five_exec": "-",
      "subzone": "BUGIS",
      "region": "CENTRAL"
    },
    {
      "Year": 2013,
      "Month": "Aug",
      "postalcode": 180232,
      "one_two": "-",
      "three": "-",
      "four": 409.2,
      "five_exec": "-",
      "subzone": "BUGIS",
      "region": "CENTRAL"
    },
    {
      "Year": 2013,
      "Month": "Aug",
      "postalcode": 180233,
      "one_two": "-",
      "three": "-",
      "four": 463.3,
      "five_exec": "-",
      "subzone": "BUGIS",
      "region": "CENTRAL"
    },
    {
      "Year": 2013,
      "Month": "Aug",
      "postalcode": 181004,
      "one_two": "-",
      "three": 414.8,
      "four": 503.8,
      "five_exec": "-",
      "subzone": "BUGIS",
      "region": "CENTRAL"
    },
    {
      "Year": 2013,
      "Month": "Aug",
      "postalcode": 190001,
      "one_two": "-",
      "three": 385.7,
      "four": "-",
      "five_exec": "-",
      "subzone": "CITY HALL",
      "region": "CENTRAL"
    },
    {
      "Year": 2013,
      "Month": "Sep",
      "postalcode": 180001,
      "one_two": "-",
      "three": 280.5,
      "four": 340.9,
      "five_exec": "-",
      "subzone": "BUGIS",
      "region": "CENTRAL"
    },
    {
      "Year": 2013,
      "Month": "Sep",
      "postalcode": 180232,
      "one_two": "-",
      "three": "-",
      "four": 362.7,
      "five_exec": "-",
      "subzone": "BUGIS",
      "region": "CENTRAL"
    },
    {
      "Year": 2013,
      "Month": "Sep",
      "postalcode": 180233,
      "one_two": "-",
      "three": "-",
      "four": 400.8,
      "five_exec": "-",
      "subzone": "BUGIS",
      "region": "CENTRAL"
    },
    {
      "Year": 2013,
      "Month": "Sep",
      "postalcode": 181004,
      "one_two": "-",
      "three": 343.4,
      "four": 441.6,
      "five_exec": "-",
      "subzone": "BUGIS",
      "region": "CENTRAL"
    },
    {
      "Year": 2013,
      "Month": "Sep",
      "postalcode": 190001,
      "one_two": "-",
      "three": 318.4,
      "four": "-",
      "five_exec": "-",
      "subzone": "CITY HALL",
      "region": "CENTRAL"
    },
    {
      "Year": 2013,
      "Month": "Oct",
      "postalcode": 180001,
      "one_two": "-",
      "three": 324.6,
      "four": 372.5,
      "five_exec": "-",
      "subzone": "BUGIS",
      "region": "CENTRAL"
    },
    {
      "Year": 2013,
      "Month": "Oct",
      "postalcode": 180232,
      "one_two": "-",
      "three": "-",
      "four": 300,
      "five_exec": "-",
      "subzone": "BUGIS",
      "region": "CENTRAL"
    },
    {
      "Year": 2013,
      "Month": "Oct",
      "postalcode": 180233,
      "one_two": "-",
      "three": "-",
      "four": 307.5,
      "five_exec": "-",
      "subzone": "BUGIS",
      "region": "CENTRAL"
    },
    {
      "Year": 2013,
      "Month": "Oct",
      "postalcode": 181004,
      "one_two": "-",
      "three": 374,
      "four": 465.2,
      "five_exec": "-",
      "subzone": "BUGIS",
      "region": "CENTRAL"
    },
    {
      "Year": 2013,
      "Month": "Oct",
      "postalcode": 190001,
      "one_two": "-",
      "three": 330.1,
      "four": "-",
      "five_exec": "-",
      "subzone": "CITY HALL",
      "region": "CENTRAL"
    },
    {
      "Year": 2013,
      "Month": "Nov",
      "postalcode": 180001,
      "one_two": "-",
      "three": 321.6,
      "four": 333.3,
      "five_exec": "-",
      "subzone": "BUGIS",
      "region": "CENTRAL"
    },
    {
      "Year": 2013,
      "Month": "Nov",
      "postalcode": 180232,
      "one_two": "-",
      "three": "-",
      "four": 382.8,
      "five_exec": "-",
      "subzone": "BUGIS",
      "region": "CENTRAL"
    },
    {
      "Year": 2013,
      "Month": "Nov",
      "postalcode": 180233,
      "one_two": "-",
      "three": "-",
      "four": 406.6,
      "five_exec": "-",
      "subzone": "BUGIS",
      "region": "CENTRAL"
    },
    {
      "Year": 2013,
      "Month": "Nov",
      "postalcode": 181004,
      "one_two": "-",
      "three": 346.2,
      "four": 480.9,
      "five_exec": "-",
      "subzone": "BUGIS",
      "region": "CENTRAL"
    },
    {
      "Year": 2013,
      "Month": "Nov",
      "postalcode": 190001,
      "one_two": "-",
      "three": 292.9,
      "four": "-",
      "five_exec": "-",
      "subzone": "CITY HALL",
      "region": "CENTRAL"
    },
    {
      "Year": 2013,
      "Month": "Dec",
      "postalcode": 180001,
      "one_two": "-",
      "three": 310.6,
      "four": 346.9,
      "five_exec": "-",
      "subzone": "BUGIS",
      "region": "CENTRAL"
    },
    {
      "Year": 2013,
      "Month": "Dec",
      "postalcode": 180232,
      "one_two": "-",
      "three": "-",
      "four": 330,
      "five_exec": "-",
      "subzone": "BUGIS",
      "region": "CENTRAL"
    },
    {
      "Year": 2013,
      "Month": "Dec",
      "postalcode": 180233,
      "one_two": "-",
      "three": "-",
      "four": 390.3,
      "five_exec": "-",
      "subzone": "BUGIS",
      "region": "CENTRAL"
    },
    {
      "Year": 2013,
      "Month": "Dec",
      "postalcode": 181004,
      "one_two": "-",
      "three": 342.5,
      "four": 457.7,
      "five_exec": "-",
      "subzone": "BUGIS",
      "region": "CENTRAL"
    },
    {
      "Year": 2013,
      "Month": "Dec",
      "postalcode": 190001,
      "one_two": "-",
      "three": 346.9,
      "four": "-",
      "five_exec": "-",
      "subzone": "CITY HALL",
      "region": "CENTRAL"
    },
    {
      "Year": 2014,
      "Month": "Jan",
      "postalcode": 180001,
      "one_two": "-",
      "three": 273.9,
      "four": 266.3,
      "five_exec": "-",
      "subzone": "BUGIS",
      "region": "CENTRAL"
    },
    {
      "Year": 2014,
      "Month": "Jan",
      "postalcode": 180232,
      "one_two": "-",
      "three": "-",
      "four": 352.5,
      "five_exec": "-",
      "subzone": "BUGIS",
      "region": "CENTRAL"
    },
    {
      "Year": 2014,
      "Month": "Jan",
      "postalcode": 180233,
      "one_two": "-",
      "three": "-",
      "four": 395.5,
      "five_exec": "-",
      "subzone": "BUGIS",
      "region": "CENTRAL"
    },
    {
      "Year": 2014,
      "Month": "Jan",
      "postalcode": 181004,
      "one_two": "-",
      "three": 270,
      "four": 344.9,
      "five_exec": "-",
      "subzone": "BUGIS",
      "region": "CENTRAL"
    },
    {
      "Year": 2014,
      "Month": "Jan",
      "postalcode": 190001,
      "one_two": "-",
      "three": 271.9,
      "four": "-",
      "five_exec": "-",
      "subzone": "CITY HALL",
      "region": "CENTRAL"
    },
    {
      "Year": 2014,
      "Month": "Feb",
      "postalcode": 180001,
      "one_two": "-",
      "three": 296.4,
      "four": 299,
      "five_exec": "-",
      "subzone": "BUGIS",
      "region": "CENTRAL"
    },
    {
      "Year": 2014,
      "Month": "Feb",
      "postalcode": 180232,
      "one_two": "-",
      "three": "-",
      "four": 245.8,
      "five_exec": "-",
      "subzone": "BUGIS",
      "region": "CENTRAL"
    },
    {
      "Year": 2014,
      "Month": "Feb",
      "postalcode": 180233,
      "one_two": "-",
      "three": "-",
      "four": 312.3,
      "five_exec": "-",
      "subzone": "BUGIS",
      "region": "CENTRAL"
    },
    {
      "Year": 2014,
      "Month": "Feb",
      "postalcode": 181004,
      "one_two": "-",
      "three": 301.5,
      "four": 407.9,
      "five_exec": "-",
      "subzone": "BUGIS",
      "region": "CENTRAL"
    },
    {
      "Year": 2014,
      "Month": "Feb",
      "postalcode": 190001,
      "one_two": "-",
      "three": 301.3,
      "four": "-",
      "five_exec": "-",
      "subzone": "CITY HALL",
      "region": "CENTRAL"
    },
    {
      "Year": 2014,
      "Month": "Mar",
      "postalcode": 180001,
      "one_two": "-",
      "three": 258.5,
      "four": 249.3,
      "five_exec": "-",
      "subzone": "BUGIS",
      "region": "CENTRAL"
    },
    {
      "Year": 2014,
      "Month": "Mar",
      "postalcode": 180232,
      "one_two": "-",
      "three": "-",
      "four": 268.2,
      "five_exec": "-",
      "subzone": "BUGIS",
      "region": "CENTRAL"
    },
    {
      "Year": 2014,
      "Month": "Mar",
      "postalcode": 180233,
      "one_two": "-",
      "three": "-",
      "four": 313.6,
      "five_exec": "-",
      "subzone": "BUGIS",
      "region": "CENTRAL"
    },
    {
      "Year": 2014,
      "Month": "Mar",
      "postalcode": 181004,
      "one_two": "-",
      "three": 238.6,
      "four": 350.5,
      "five_exec": "-",
      "subzone": "BUGIS",
      "region": "CENTRAL"
    },
    {
      "Year": 2014,
      "Month": "Mar",
      "postalcode": 190001,
      "one_two": "-",
      "three": 283.5,
      "four": "-",
      "five_exec": "-",
      "subzone": "CITY HALL",
      "region": "CENTRAL"
    },
    {
      "Year": 2014,
      "Month": "Apr",
      "postalcode": 180001,
      "one_two": "-",
      "three": 293.1,
      "four": 304.5,
      "five_exec": "-",
      "subzone": "BUGIS",
      "region": "CENTRAL"
    },
    {
      "Year": 2014,
      "Month": "Apr",
      "postalcode": 180232,
      "one_two": "-",
      "three": "-",
      "four": 382.2,
      "five_exec": "-",
      "subzone": "BUGIS",
      "region": "CENTRAL"
    },
    {
      "Year": 2014,
      "Month": "Apr",
      "postalcode": 180233,
      "one_two": "-",
      "three": "-",
      "four": 421.7,
      "five_exec": "-",
      "subzone": "BUGIS",
      "region": "CENTRAL"
    },
    {
      "Year": 2014,
      "Month": "Apr",
      "postalcode": 181004,
      "one_two": "-",
      "three": 287.7,
      "four": 398.4,
      "five_exec": "-",
      "subzone": "BUGIS",
      "region": "CENTRAL"
    },
    {
      "Year": 2014,
      "Month": "Apr",
      "postalcode": 190001,
      "one_two": "-",
      "three": 304.8,
      "four": "-",
      "five_exec": "-",
      "subzone": "CITY HALL",
      "region": "CENTRAL"
    },
    {
      "Year": 2014,
      "Month": "May",
      "postalcode": 180001,
      "one_two": "-",
      "three": 359,
      "four": 414.5,
      "five_exec": "-",
      "subzone": "BUGIS",
      "region": "CENTRAL"
    },
    {
      "Year": 2014,
      "Month": "May",
      "postalcode": 180232,
      "one_two": "-",
      "three": "-",
      "four": 332.6,
      "five_exec": "-",
      "subzone": "BUGIS",
      "region": "CENTRAL"
    },
    {
      "Year": 2014,
      "Month": "May",
      "postalcode": 180233,
      "one_two": "-",
      "three": "-",
      "four": 380.8,
      "five_exec": "-",
      "subzone": "BUGIS",
      "region": "CENTRAL"
    },
    {
      "Year": 2014,
      "Month": "May",
      "postalcode": 181004,
      "one_two": "-",
      "three": 407.3,
      "four": 541.1,
      "five_exec": "-",
      "subzone": "BUGIS",
      "region": "CENTRAL"
    },
    {
      "Year": 2014,
      "Month": "May",
      "postalcode": 190001,
      "one_two": "-",
      "three": 350.7,
      "four": "-",
      "five_exec": "-",
      "subzone": "CITY HALL",
      "region": "CENTRAL"
    },
    {
      "Year": 2014,
      "Month": "Jun",
      "postalcode": 180001,
      "one_two": "-",
      "three": 333.6,
      "four": 366.9,
      "five_exec": "-",
      "subzone": "BUGIS",
      "region": "CENTRAL"
    },
    {
      "Year": 2014,
      "Month": "Jun",
      "postalcode": 180232,
      "one_two": "-",
      "three": "-",
      "four": 429.3,
      "five_exec": "-",
      "subzone": "BUGIS",
      "region": "CENTRAL"
    },
    {
      "Year": 2014,
      "Month": "Jun",
      "postalcode": 180233,
      "one_two": "-",
      "three": "-",
      "four": 433.1,
      "five_exec": "-",
      "subzone": "BUGIS",
      "region": "CENTRAL"
    },
    {
      "Year": 2014,
      "Month": "Jun",
      "postalcode": 181004,
      "one_two": "-",
      "three": 358.8,
      "four": 477.5,
      "five_exec": "-",
      "subzone": "BUGIS",
      "region": "CENTRAL"
    },
    {
      "Year": 2014,
      "Month": "Jun",
      "postalcode": 190001,
      "one_two": "-",
      "three": 351.4,
      "four": "-",
      "five_exec": "-",
      "subzone": "CITY HALL",
      "region": "CENTRAL"
    },
    {
      "Year": 2014,
      "Month": "Jul",
      "postalcode": 180001,
      "one_two": "-",
      "three": 348.8,
      "four": 406.5,
      "five_exec": "-",
      "subzone": "BUGIS",
      "region": "CENTRAL"
    },
    {
      "Year": 2014,
      "Month": "Jul",
      "postalcode": 180232,
      "one_two": "-",
      "three": "-",
      "four": 368.8,
      "five_exec": "-",
      "subzone": "BUGIS",
      "region": "CENTRAL"
    },
    {
      "Year": 2014,
      "Month": "Jul",
      "postalcode": 180233,
      "one_two": "-",
      "three": "-",
      "four": 399.8,
      "five_exec": "-",
      "subzone": "BUGIS",
      "region": "CENTRAL"
    },
    {
      "Year": 2014,
      "Month": "Jul",
      "postalcode": 181004,
      "one_two": "-",
      "three": 392.6,
      "four": 545.5,
      "five_exec": "-",
      "subzone": "BUGIS",
      "region": "CENTRAL"
    },
    {
      "Year": 2014,
      "Month": "Jul",
      "postalcode": 190001,
      "one_two": "-",
      "three": 400.7,
      "four": "-",
      "five_exec": "-",
      "subzone": "CITY HALL",
      "region": "CENTRAL"
    },
    {
      "Year": 2014,
      "Month": "Aug",
      "postalcode": 180001,
      "one_two": "-",
      "three": 350.1,
      "four": 388.8,
      "five_exec": "-",
      "subzone": "BUGIS",
      "region": "CENTRAL"
    },
    {
      "Year": 2014,
      "Month": "Aug",
      "postalcode": 180232,
      "one_two": "-",
      "three": "-",
      "four": 396,
      "five_exec": "-",
      "subzone": "BUGIS",
      "region": "CENTRAL"
    },
    {
      "Year": 2014,
      "Month": "Aug",
      "postalcode": 180233,
      "one_two": "-",
      "three": "-",
      "four": 422,
      "five_exec": "-",
      "subzone": "BUGIS",
      "region": "CENTRAL"
    },
    {
      "Year": 2014,
      "Month": "Aug",
      "postalcode": 181004,
      "one_two": "-",
      "three": 380.6,
      "four": 519.9,
      "five_exec": "-",
      "subzone": "BUGIS",
      "region": "CENTRAL"
    },
    {
      "Year": 2014,
      "Month": "Aug",
      "postalcode": 190001,
      "one_two": "-",
      "three": 395.9,
      "four": "-",
      "five_exec": "-",
      "subzone": "CITY HALL",
      "region": "CENTRAL"
    },
    {
      "Year": 2014,
      "Month": "Sep",
      "postalcode": 180001,
      "one_two": "-",
      "three": 291.6,
      "four": 343.1,
      "five_exec": "-",
      "subzone": "BUGIS",
      "region": "CENTRAL"
    },
    {
      "Year": 2014,
      "Month": "Sep",
      "postalcode": 180232,
      "one_two": "-",
      "three": "-",
      "four": 373.5,
      "five_exec": "-",
      "subzone": "BUGIS",
      "region": "CENTRAL"
    },
    {
      "Year": 2014,
      "Month": "Sep",
      "postalcode": 180233,
      "one_two": "-",
      "three": "-",
      "four": 402.7,
      "five_exec": "-",
      "subzone": "BUGIS",
      "region": "CENTRAL"
    },
    {
      "Year": 2014,
      "Month": "Sep",
      "postalcode": 181004,
      "one_two": "-",
      "three": 320.5,
      "four": 383,
      "five_exec": "-",
      "subzone": "BUGIS",
      "region": "CENTRAL"
    },
    {
      "Year": 2014,
      "Month": "Sep",
      "postalcode": 190001,
      "one_two": "-",
      "three": 322.5,
      "four": "-",
      "five_exec": "-",
      "subzone": "CITY HALL",
      "region": "CENTRAL"
    },
    {
      "Year": 2014,
      "Month": "Oct",
      "postalcode": 180001,
      "one_two": "-",
      "three": 334.9,
      "four": 387.8,
      "five_exec": "-",
      "subzone": "BUGIS",
      "region": "CENTRAL"
    },
    {
      "Year": 2014,
      "Month": "Oct",
      "postalcode": 180232,
      "one_two": "-",
      "three": "-",
      "four": 377.3,
      "five_exec": "-",
      "subzone": "BUGIS",
      "region": "CENTRAL"
    },
    {
      "Year": 2014,
      "Month": "Oct",
      "postalcode": 180233,
      "one_two": "-",
      "three": "-",
      "four": 412.4,
      "five_exec": "-",
      "subzone": "BUGIS",
      "region": "CENTRAL"
    },
    {
      "Year": 2014,
      "Month": "Oct",
      "postalcode": 181004,
      "one_two": "-",
      "three": 368.8,
      "four": 491.1,
      "five_exec": "-",
      "subzone": "BUGIS",
      "region": "CENTRAL"
    },
    {
      "Year": 2014,
      "Month": "Oct",
      "postalcode": 190001,
      "one_two": "-",
      "three": 340.5,
      "four": "-",
      "five_exec": "-",
      "subzone": "CITY HALL",
      "region": "CENTRAL"
    },
    {
      "Year": 2014,
      "Month": "Nov",
      "postalcode": 180001,
      "one_two": "-",
      "three": 327.7,
      "four": 381.1,
      "five_exec": "-",
      "subzone": "BUGIS",
      "region": "CENTRAL"
    },
    {
      "Year": 2014,
      "Month": "Nov",
      "postalcode": 180232,
      "one_two": "-",
      "three": "-",
      "four": 358.4,
      "five_exec": "-",
      "subzone": "BUGIS",
      "region": "CENTRAL"
    },
    {
      "Year": 2014,
      "Month": "Nov",
      "postalcode": 180233,
      "one_two": "-",
      "three": "-",
      "four": 382.2,
      "five_exec": "-",
      "subzone": "BUGIS",
      "region": "CENTRAL"
    },
    {
      "Year": 2014,
      "Month": "Nov",
      "postalcode": 181004,
      "one_two": "-",
      "three": 367.6,
      "four": 499.1,
      "five_exec": "-",
      "subzone": "BUGIS",
      "region": "CENTRAL"
    },
    {
      "Year": 2014,
      "Month": "Nov",
      "postalcode": 190001,
      "one_two": "-",
      "three": 370.9,
      "four": "-",
      "five_exec": "-",
      "subzone": "CITY HALL",
      "region": "CENTRAL"
    },
    {
      "Year": 2014,
      "Month": "Dec",
      "postalcode": 180001,
      "one_two": "-",
      "three": 333.3,
      "four": 385,
      "five_exec": "-",
      "subzone": "BUGIS",
      "region": "CENTRAL"
    },
    {
      "Year": 2014,
      "Month": "Dec",
      "postalcode": 180232,
      "one_two": "-",
      "three": "-",
      "four": 324.4,
      "five_exec": "-",
      "subzone": "BUGIS",
      "region": "CENTRAL"
    },
    {
      "Year": 2014,
      "Month": "Dec",
      "postalcode": 180233,
      "one_two": "-",
      "three": "-",
      "four": 360.1,
      "five_exec": "-",
      "subzone": "BUGIS",
      "region": "CENTRAL"
    },
    {
      "Year": 2014,
      "Month": "Dec",
      "postalcode": 181004,
      "one_two": "-",
      "three": 371.6,
      "four": 498,
      "five_exec": "-",
      "subzone": "BUGIS",
      "region": "CENTRAL"
    },
    {
      "Year": 2014,
      "Month": "Dec",
      "postalcode": 190001,
      "one_two": "-",
      "three": 350.7,
      "four": "-",
      "five_exec": "-",
      "subzone": "CITY HALL",
      "region": "CENTRAL"
    },
    {
      "Year": 2015,
      "Month": "Jan",
      "postalcode": 180001,
      "one_two": "-",
      "three": 262.4,
      "four": 283,
      "five_exec": "-",
      "subzone": "BUGIS",
      "region": "CENTRAL"
    },
    {
      "Year": 2015,
      "Month": "Jan",
      "postalcode": 180232,
      "one_two": "-",
      "three": "-",
      "four": 340,
      "five_exec": "-",
      "subzone": "BUGIS",
      "region": "CENTRAL"
    },
    {
      "Year": 2015,
      "Month": "Jan",
      "postalcode": 180233,
      "one_two": "-",
      "three": "-",
      "four": 382.9,
      "five_exec": "-",
      "subzone": "BUGIS",
      "region": "CENTRAL"
    },
    {
      "Year": 2015,
      "Month": "Jan",
      "postalcode": 181004,
      "one_two": "-",
      "three": 230.6,
      "four": 382.2,
      "five_exec": "-",
      "subzone": "BUGIS",
      "region": "CENTRAL"
    },
    {
      "Year": 2015,
      "Month": "Jan",
      "postalcode": 190001,
      "one_two": "-",
      "three": 254.6,
      "four": "-",
      "five_exec": "-",
      "subzone": "CITY HALL",
      "region": "CENTRAL"
    },
    {
      "Year": 2015,
      "Month": "Feb",
      "postalcode": 180001,
      "one_two": "-",
      "three": 312.6,
      "four": 350,
      "five_exec": "-",
      "subzone": "BUGIS",
      "region": "CENTRAL"
    },
    {
      "Year": 2015,
      "Month": "Feb",
      "postalcode": 180232,
      "one_two": "-",
      "three": "-",
      "four": 263,
      "five_exec": "-",
      "subzone": "BUGIS",
      "region": "CENTRAL"
    },
    {
      "Year": 2015,
      "Month": "Feb",
      "postalcode": 180233,
      "one_two": "-",
      "three": "-",
      "four": 292.8,
      "five_exec": "-",
      "subzone": "BUGIS",
      "region": "CENTRAL"
    },
    {
      "Year": 2015,
      "Month": "Feb",
      "postalcode": 181004,
      "one_two": "-",
      "three": 316.9,
      "four": 461.8,
      "five_exec": "-",
      "subzone": "BUGIS",
      "region": "CENTRAL"
    },
    {
      "Year": 2015,
      "Month": "Feb",
      "postalcode": 190001,
      "one_two": "-",
      "three": 305,
      "four": "-",
      "five_exec": "-",
      "subzone": "CITY HALL",
      "region": "CENTRAL"
    },
    {
      "Year": 2015,
      "Month": "Mar",
      "postalcode": 180001,
      "one_two": "-",
      "three": 272.8,
      "four": 304.7,
      "five_exec": "-",
      "subzone": "BUGIS",
      "region": "CENTRAL"
    },
    {
      "Year": 2015,
      "Month": "Mar",
      "postalcode": 180232,
      "one_two": "-",
      "three": "-",
      "four": 296.6,
      "five_exec": "-",
      "subzone": "BUGIS",
      "region": "CENTRAL"
    },
    {
      "Year": 2015,
      "Month": "Mar",
      "postalcode": 180233,
      "one_two": "-",
      "three": "-",
      "four": 324.6,
      "five_exec": "-",
      "subzone": "BUGIS",
      "region": "CENTRAL"
    },
    {
      "Year": 2015,
      "Month": "Mar",
      "postalcode": 181004,
      "one_two": "-",
      "three": 275.5,
      "four": 427.3,
      "five_exec": "-",
      "subzone": "BUGIS",
      "region": "CENTRAL"
    },
    {
      "Year": 2015,
      "Month": "Mar",
      "postalcode": 190001,
      "one_two": "-",
      "three": 321.5,
      "four": "-",
      "five_exec": "-",
      "subzone": "CITY HALL",
      "region": "CENTRAL"
    },
    {
      "Year": 2015,
      "Month": "Apr",
      "postalcode": 180001,
      "one_two": "-",
      "three": 271,
      "four": 309.1,
      "five_exec": "-",
      "subzone": "BUGIS",
      "region": "CENTRAL"
    },
    {
      "Year": 2015,
      "Month": "Apr",
      "postalcode": 180232,
      "one_two": "-",
      "three": "-",
      "four": 342.1,
      "five_exec": "-",
      "subzone": "BUGIS",
      "region": "CENTRAL"
    },
    {
      "Year": 2015,
      "Month": "Apr",
      "postalcode": 180233,
      "one_two": "-",
      "three": "-",
      "four": 406.5,
      "five_exec": "-",
      "subzone": "BUGIS",
      "region": "CENTRAL"
    },
    {
      "Year": 2015,
      "Month": "Apr",
      "postalcode": 181004,
      "one_two": "-",
      "three": 282.3,
      "four": 415.8,
      "five_exec": "-",
      "subzone": "BUGIS",
      "region": "CENTRAL"
    },
    {
      "Year": 2015,
      "Month": "Apr",
      "postalcode": 190001,
      "one_two": "-",
      "three": 312.9,
      "four": "-",
      "five_exec": "-",
      "subzone": "CITY HALL",
      "region": "CENTRAL"
    },
    {
      "Year": 2015,
      "Month": "May",
      "postalcode": 180001,
      "one_two": "-",
      "three": 321.5,
      "four": 417.4,
      "five_exec": "-",
      "subzone": "BUGIS",
      "region": "CENTRAL"
    },
    {
      "Year": 2015,
      "Month": "May",
      "postalcode": 180232,
      "one_two": "-",
      "three": "-",
      "four": 339.4,
      "five_exec": "-",
      "subzone": "BUGIS",
      "region": "CENTRAL"
    },
    {
      "Year": 2015,
      "Month": "May",
      "postalcode": 180233,
      "one_two": "-",
      "three": "-",
      "four": 381.8,
      "five_exec": "-",
      "subzone": "BUGIS",
      "region": "CENTRAL"
    },
    {
      "Year": 2015,
      "Month": "May",
      "postalcode": 181004,
      "one_two": "-",
      "three": 408.4,
      "four": 487.7,
      "five_exec": "-",
      "subzone": "BUGIS",
      "region": "CENTRAL"
    },
    {
      "Year": 2015,
      "Month": "May",
      "postalcode": 190001,
      "one_two": "-",
      "three": 354.5,
      "four": "-",
      "five_exec": "-",
      "subzone": "CITY HALL",
      "region": "CENTRAL"
    },
    {
      "Year": 2015,
      "Month": "Jun",
      "postalcode": 180001,
      "one_two": "-",
      "three": 320.8,
      "four": 383.2,
      "five_exec": "-",
      "subzone": "BUGIS",
      "region": "CENTRAL"
    },
    {
      "Year": 2015,
      "Month": "Jun",
      "postalcode": 180232,
      "one_two": "-",
      "three": "-",
      "four": 423.3,
      "five_exec": "-",
      "subzone": "BUGIS",
      "region": "CENTRAL"
    },
    {
      "Year": 2015,
      "Month": "Jun",
      "postalcode": 180233,
      "one_two": "-",
      "three": "-",
      "four": 436.6,
      "five_exec": "-",
      "subzone": "BUGIS",
      "region": "CENTRAL"
    },
    {
      "Year": 2015,
      "Month": "Jun",
      "postalcode": 181004,
      "one_two": "-",
      "three": 359.6,
      "four": 474.6,
      "five_exec": "-",
      "subzone": "BUGIS",
      "region": "CENTRAL"
    },
    {
      "Year": 2015,
      "Month": "Jun",
      "postalcode": 190001,
      "one_two": "-",
      "three": 317.5,
      "four": "-",
      "five_exec": "-",
      "subzone": "CITY HALL",
      "region": "CENTRAL"
    },
    {
      "Year": 2015,
      "Month": "July",
      "postalcode": 180001,
      "one_two": "-",
      "three": 347,
      "four": 432.2,
      "five_exec": "-",
      "subzone": "BUGIS",
      "region": "CENTRAL"
    },
    {
      "Year": 2015,
      "Month": "July",
      "postalcode": 180232,
      "one_two": "-",
      "three": "-",
      "four": 347,
      "five_exec": "-",
      "subzone": "BUGIS",
      "region": "CENTRAL"
    },
    {
      "Year": 2015,
      "Month": "July",
      "postalcode": 180233,
      "one_two": "-",
      "three": "-",
      "four": 392.1,
      "five_exec": "-",
      "subzone": "BUGIS",
      "region": "CENTRAL"
    },
    {
      "Year": 2015,
      "Month": "July",
      "postalcode": 181004,
      "one_two": "-",
      "three": 441.7,
      "four": 532.8,
      "five_exec": "-",
      "subzone": "BUGIS",
      "region": "CENTRAL"
    },
    {
      "Year": 2015,
      "Month": "July",
      "postalcode": 190001,
      "one_two": "-",
      "three": 357.4,
      "four": "-",
      "five_exec": "-",
      "subzone": "CITY HALL",
      "region": "CENTRAL"
    },
    {
      "Year": 2015,
      "Month": "Aug",
      "postalcode": 180001,
      "one_two": "-",
      "three": 340.8,
      "four": 379.5,
      "five_exec": "-",
      "subzone": "BUGIS",
      "region": "CENTRAL"
    },
    {
      "Year": 2015,
      "Month": "Aug",
      "postalcode": 180232,
      "one_two": "-",
      "three": "-",
      "four": 384,
      "five_exec": "-",
      "subzone": "BUGIS",
      "region": "CENTRAL"
    },
    {
      "Year": 2015,
      "Month": "Aug",
      "postalcode": 180233,
      "one_two": "-",
      "three": "-",
      "four": 451.8,
      "five_exec": "-",
      "subzone": "BUGIS",
      "region": "CENTRAL"
    },
    {
      "Year": 2015,
      "Month": "Aug",
      "postalcode": 181004,
      "one_two": "-",
      "three": 411.2,
      "four": 512,
      "five_exec": "-",
      "subzone": "BUGIS",
      "region": "CENTRAL"
    },
    {
      "Year": 2015,
      "Month": "Aug",
      "postalcode": 190001,
      "one_two": "-",
      "three": 344.1,
      "four": "-",
      "five_exec": "-",
      "subzone": "CITY HALL",
      "region": "CENTRAL"
    },
    {
      "Year": 2015,
      "Month": "Sep",
      "postalcode": 180001,
      "one_two": "-",
      "three": 359.7,
      "four": 417.4,
      "five_exec": "-",
      "subzone": "BUGIS",
      "region": "CENTRAL"
    },
    {
      "Year": 2015,
      "Month": "Sep",
      "postalcode": 180232,
      "one_two": "-",
      "three": "-",
      "four": 362.3,
      "five_exec": "-",
      "subzone": "BUGIS",
      "region": "CENTRAL"
    },
    {
      "Year": 2015,
      "Month": "Sep",
      "postalcode": 180233,
      "one_two": "-",
      "three": "-",
      "four": 428.1,
      "five_exec": "-",
      "subzone": "BUGIS",
      "region": "CENTRAL"
    },
    {
      "Year": 2015,
      "Month": "Sep",
      "postalcode": 181004,
      "one_two": "-",
      "three": 408.3,
      "four": 516.5,
      "five_exec": "-",
      "subzone": "BUGIS",
      "region": "CENTRAL"
    },
    {
      "Year": 2015,
      "Month": "Sep",
      "postalcode": 190001,
      "one_two": "-",
      "three": 363,
      "four": "-",
      "five_exec": "-",
      "subzone": "CITY HALL",
      "region": "CENTRAL"
    },
    {
      "Year": 2015,
      "Month": "Oct",
      "postalcode": 180001,
      "one_two": "-",
      "three": 319.8,
      "four": 388.8,
      "five_exec": "-",
      "subzone": "BUGIS",
      "region": "CENTRAL"
    },
    {
      "Year": 2015,
      "Month": "Oct",
      "postalcode": 180232,
      "one_two": "-",
      "three": "-",
      "four": 390.9,
      "five_exec": "-",
      "subzone": "BUGIS",
      "region": "CENTRAL"
    },
    {
      "Year": 2015,
      "Month": "Oct",
      "postalcode": 180233,
      "one_two": "-",
      "three": "-",
      "four": 401.2,
      "five_exec": "-",
      "subzone": "BUGIS",
      "region": "CENTRAL"
    },
    {
      "Year": 2015,
      "Month": "Oct",
      "postalcode": 181004,
      "one_two": "-",
      "three": 376.8,
      "four": 473.4,
      "five_exec": "-",
      "subzone": "BUGIS",
      "region": "CENTRAL"
    },
    {
      "Year": 2015,
      "Month": "Oct",
      "postalcode": 190001,
      "one_two": "-",
      "three": 337.7,
      "four": "-",
      "five_exec": "-",
      "subzone": "CITY HALL",
      "region": "CENTRAL"
    },
    {
      "Year": 2015,
      "Month": "Nov",
      "postalcode": 180001,
      "one_two": "-",
      "three": 353.6,
      "four": 314.5,
      "five_exec": "-",
      "subzone": "BUGIS",
      "region": "CENTRAL"
    },
    {
      "Year": 2015,
      "Month": "Nov",
      "postalcode": 180232,
      "one_two": "-",
      "three": "-",
      "four": 394,
      "five_exec": "-",
      "subzone": "BUGIS",
      "region": "CENTRAL"
    },
    {
      "Year": 2015,
      "Month": "Nov",
      "postalcode": 180233,
      "one_two": "-",
      "three": "-",
      "four": 409.9,
      "five_exec": "-",
      "subzone": "BUGIS",
      "region": "CENTRAL"
    },
    {
      "Year": 2015,
      "Month": "Nov",
      "postalcode": 181004,
      "one_two": "-",
      "three": 396.6,
      "four": 477.2,
      "five_exec": "-",
      "subzone": "BUGIS",
      "region": "CENTRAL"
    },
    {
      "Year": 2015,
      "Month": "Nov",
      "postalcode": 190001,
      "one_two": "-",
      "three": 348.8,
      "four": "-",
      "five_exec": "-",
      "subzone": "CITY HALL",
      "region": "CENTRAL"
    },
    {
      "Year": 2015,
      "Month": "Dec",
      "postalcode": 180001,
      "one_two": "-",
      "three": 357.1,
      "four": 375.9,
      "five_exec": "-",
      "subzone": "BUGIS",
      "region": "CENTRAL"
    },
    {
      "Year": 2015,
      "Month": "Dec",
      "postalcode": 180232,
      "one_two": "-",
      "three": "-",
      "four": 341,
      "five_exec": "-",
      "subzone": "BUGIS",
      "region": "CENTRAL"
    },
    {
      "Year": 2015,
      "Month": "Dec",
      "postalcode": 180233,
      "one_two": "-",
      "three": "-",
      "four": 368.8,
      "five_exec": "-",
      "subzone": "BUGIS",
      "region": "CENTRAL"
    },
    {
      "Year": 2015,
      "Month": "Dec",
      "postalcode": 181004,
      "one_two": "-",
      "three": 396,
      "four": 499.5,
      "five_exec": "-",
      "subzone": "BUGIS",
      "region": "CENTRAL"
    },
    {
      "Year": 2015,
      "Month": "Dec",
      "postalcode": 190001,
      "one_two": "-",
      "three": 359.9,
      "four": "-",
      "five_exec": "-",
      "subzone": "CITY HALL",
      "region": "CENTRAL"
    },
    {
      "Year": 2016,
      "Month": "Jan",
      "postalcode": 180001,
      "one_two": "-",
      "three": 299.455,
      "four": 256.5,
      "five_exec": "-",
      "subzone": "BUGIS",
      "region": "CENTRAL"
    },
    {
      "Year": 2016,
      "Month": "Jan",
      "postalcode": 180232,
      "one_two": "-",
      "three": "-",
      "four": 374.775,
      "five_exec": "-",
      "subzone": "BUGIS",
      "region": "CENTRAL"
    },
    {
      "Year": 2016,
      "Month": "Jan",
      "postalcode": 180233,
      "one_two": "-",
      "three": "-",
      "four": 405.358,
      "five_exec": "-",
      "subzone": "BUGIS",
      "region": "CENTRAL"
    },
    {
      "Year": 2016,
      "Month": "Jan",
      "postalcode": 181004,
      "one_two": "-",
      "three": 272.622,
      "four": 413.923,
      "five_exec": "-",
      "subzone": "BUGIS",
      "region": "CENTRAL"
    },
    {
      "Year": 2016,
      "Month": "Jan",
      "postalcode": 190001,
      "one_two": "-",
      "three": 265.124,
      "four": "-",
      "five_exec": "-",
      "subzone": "CITY HALL",
      "region": "CENTRAL"
    },
    {
      "Year": 2016,
      "Month": "Feb",
      "postalcode": 180001,
      "one_two": "-",
      "three": 344.099,
      "four": 330.654,
      "five_exec": "-",
      "subzone": "BUGIS",
      "region": "CENTRAL"
    },
    {
      "Year": 2016,
      "Month": "Feb",
      "postalcode": 180232,
      "one_two": "-",
      "three": "-",
      "four": 348.317,
      "five_exec": "-",
      "subzone": "BUGIS",
      "region": "CENTRAL"
    },
    {
      "Year": 2016,
      "Month": "Feb",
      "postalcode": 180233,
      "one_two": "-",
      "three": "-",
      "four": 381.849,
      "five_exec": "-",
      "subzone": "BUGIS",
      "region": "CENTRAL"
    },
    {
      "Year": 2016,
      "Month": "Feb",
      "postalcode": 181004,
      "one_two": "-",
      "three": 337.081,
      "four": 479.231,
      "five_exec": "-",
      "subzone": "BUGIS",
      "region": "CENTRAL"
    },
    {
      "Year": 2016,
      "Month": "Feb",
      "postalcode": 190001,
      "one_two": "-",
      "three": 342.219,
      "four": "-",
      "five_exec": "-",
      "subzone": "CITY HALL",
      "region": "CENTRAL"
    },
    {
      "Year": 2016,
      "Month": "Mar",
      "postalcode": 180001,
      "one_two": "-",
      "three": 309.339,
      "four": 342.4,
      "five_exec": "-",
      "subzone": "BUGIS",
      "region": "CENTRAL"
    },
    {
      "Year": 2016,
      "Month": "Mar",
      "postalcode": 180232,
      "one_two": "-",
      "three": "-",
      "four": 335.8,
      "five_exec": "-",
      "subzone": "BUGIS",
      "region": "CENTRAL"
    },
    {
      "Year": 2016,
      "Month": "Mar",
      "postalcode": 180233,
      "one_two": "-",
      "three": "-",
      "four": 362.542,
      "five_exec": "-",
      "subzone": "BUGIS",
      "region": "CENTRAL"
    },
    {
      "Year": 2016,
      "Month": "Mar",
      "postalcode": 181004,
      "one_two": "-",
      "three": 326.412,
      "four": 420.462,
      "five_exec": "-",
      "subzone": "BUGIS",
      "region": "CENTRAL"
    },
    {
      "Year": 2016,
      "Month": "Mar",
      "postalcode": 190001,
      "one_two": "-",
      "three": 324.985,
      "four": "-",
      "five_exec": "-",
      "subzone": "CITY HALL",
      "region": "CENTRAL"
    },
    {
      "Year": 2016,
      "Month": "Apr",
      "postalcode": 180001,
      "one_two": "-",
      "three": 332.958,
      "four": 350.32,
      "five_exec": "-",
      "subzone": "BUGIS",
      "region": "CENTRAL"
    },
    {
      "Year": 2016,
      "Month": "Apr",
      "postalcode": 180232,
      "one_two": "-",
      "three": "-",
      "four": 374.108,
      "five_exec": "-",
      "subzone": "BUGIS",
      "region": "CENTRAL"
    },
    {
      "Year": 2016,
      "Month": "Apr",
      "postalcode": 180233,
      "one_two": "-",
      "three": "-",
      "four": 407.504,
      "five_exec": "-",
      "subzone": "BUGIS",
      "region": "CENTRAL"
    },
    {
      "Year": 2016,
      "Month": "Apr",
      "postalcode": 181004,
      "one_two": "-",
      "three": 340.993,
      "four": 457.231,
      "five_exec": "-",
      "subzone": "BUGIS",
      "region": "CENTRAL"
    },
    {
      "Year": 2016,
      "Month": "Apr",
      "postalcode": 190001,
      "one_two": "-",
      "three": 352.669,
      "four": "-",
      "five_exec": "-",
      "subzone": "CITY HALL",
      "region": "CENTRAL"
    },
    {
      "Year": 2016,
      "Month": "May",
      "postalcode": 180001,
      "one_two": "-",
      "three": 350.595,
      "four": 393.32,
      "five_exec": "-",
      "subzone": "BUGIS",
      "region": "CENTRAL"
    },
    {
      "Year": 2016,
      "Month": "May",
      "postalcode": 180232,
      "one_two": "-",
      "three": "-",
      "four": 362.934,
      "five_exec": "-",
      "subzone": "BUGIS",
      "region": "CENTRAL"
    },
    {
      "Year": 2016,
      "Month": "May",
      "postalcode": 180233,
      "one_two": "-",
      "three": "-",
      "four": 389.571,
      "five_exec": "-",
      "subzone": "BUGIS",
      "region": "CENTRAL"
    },
    {
      "Year": 2016,
      "Month": "May",
      "postalcode": 181004,
      "one_two": "-",
      "three": 401.582,
      "four": 467.615,
      "five_exec": "-",
      "subzone": "BUGIS",
      "region": "CENTRAL"
    },
    {
      "Year": 2016,
      "Month": "May",
      "postalcode": 190001,
      "one_two": "-",
      "three": 411.167,
      "four": "-",
      "five_exec": "-",
      "subzone": "CITY HALL",
      "region": "CENTRAL"
    },
    {
      "Year": 2016,
      "Month": "Jun",
      "postalcode": 180001,
      "one_two": "-",
      "three": 366.876,
      "four": 399.962,
      "five_exec": "-",
      "subzone": "BUGIS",
      "region": "CENTRAL"
    },
    {
      "Year": 2016,
      "Month": "Jun",
      "postalcode": 180232,
      "one_two": "-",
      "three": "-",
      "four": 483.405,
      "five_exec": "-",
      "subzone": "BUGIS",
      "region": "CENTRAL"
    },
    {
      "Year": 2016,
      "Month": "Jun",
      "postalcode": 180233,
      "one_two": "-",
      "three": "-",
      "four": 506.319,
      "five_exec": "-",
      "subzone": "BUGIS",
      "region": "CENTRAL"
    },
    {
      "Year": 2016,
      "Month": "Jun",
      "postalcode": 181004,
      "one_two": "-",
      "three": 394.015,
      "four": 493.154,
      "five_exec": "-",
      "subzone": "BUGIS",
      "region": "CENTRAL"
    },
    {
      "Year": 2016,
      "Month": "Jun",
      "postalcode": 190001,
      "one_two": "-",
      "three": 348.101,
      "four": "-",
      "five_exec": "-",
      "subzone": "CITY HALL",
      "region": "CENTRAL"
    },
    {
      "Year": 2016,
      "Month": "Jul",
      "postalcode": 180001,
      "one_two": "-",
      "three": 319.317,
      "four": 299,
      "five_exec": "-",
      "subzone": "BUGIS",
      "region": "CENTRAL"
    },
    {
      "Year": 2016,
      "Month": "Jul",
      "postalcode": 180232,
      "one_two": "-",
      "three": "-",
      "four": 451.215,
      "five_exec": "-",
      "subzone": "BUGIS",
      "region": "CENTRAL"
    },
    {
      "Year": 2016,
      "Month": "Jul",
      "postalcode": 180233,
      "one_two": "-",
      "three": "-",
      "four": 485.899,
      "five_exec": "-",
      "subzone": "BUGIS",
      "region": "CENTRAL"
    },
    {
      "Year": 2016,
      "Month": "Jul",
      "postalcode": 181004,
      "one_two": "-",
      "three": 347.455,
      "four": 420.692,
      "five_exec": "-",
      "subzone": "BUGIS",
      "region": "CENTRAL"
    },
    {
      "Year": 2016,
      "Month": "Jul",
      "postalcode": 190001,
      "one_two": "-",
      "three": 364.601,
      "four": "-",
      "five_exec": "-",
      "subzone": "CITY HALL",
      "region": "CENTRAL"
    },
    {
      "Year": 2016,
      "Month": "Aug",
      "postalcode": 180001,
      "one_two": "-",
      "three": 353.299,
      "four": 333.84,
      "five_exec": "-",
      "subzone": "BUGIS",
      "region": "CENTRAL"
    },
    {
      "Year": 2016,
      "Month": "Aug",
      "postalcode": 180232,
      "one_two": "-",
      "three": "-",
      "four": 275.197,
      "five_exec": "-",
      "subzone": "BUGIS",
      "region": "CENTRAL"
    },
    {
      "Year": 2016,
      "Month": "Aug",
      "postalcode": 180233,
      "one_two": "-",
      "three": "-",
      "four": 328.537,
      "five_exec": "-",
      "subzone": "BUGIS",
      "region": "CENTRAL"
    },
    {
      "Year": 2016,
      "Month": "Aug",
      "postalcode": 181004,
      "one_two": "-",
      "three": 403.877,
      "four": 500.462,
      "five_exec": "-",
      "subzone": "BUGIS",
      "region": "CENTRAL"
    },
    {
      "Year": 2016,
      "Month": "Aug",
      "postalcode": 190001,
      "one_two": "-",
      "three": 353.087,
      "four": "-",
      "five_exec": "-",
      "subzone": "CITY HALL",
      "region": "CENTRAL"
    },
    {
      "Year": 2016,
      "Month": "Sep",
      "postalcode": 180001,
      "one_two": "-",
      "three": 308.259,
      "four": 324.375,
      "five_exec": "-",
      "subzone": "BUGIS",
      "region": "CENTRAL"
    },
    {
      "Year": 2016,
      "Month": "Sep",
      "postalcode": 180232,
      "one_two": "-",
      "three": "-",
      "four": 355.658,
      "five_exec": "-",
      "subzone": "BUGIS",
      "region": "CENTRAL"
    },
    {
      "Year": 2016,
      "Month": "Sep",
      "postalcode": 180233,
      "one_two": "-",
      "three": "-",
      "four": 400.05,
      "five_exec": "-",
      "subzone": "BUGIS",
      "region": "CENTRAL"
    },
    {
      "Year": 2016,
      "Month": "Sep",
      "postalcode": 181004,
      "one_two": "-",
      "three": 319.911,
      "four": 470.833,
      "five_exec": "-",
      "subzone": "BUGIS",
      "region": "CENTRAL"
    },
    {
      "Year": 2016,
      "Month": "Sep",
      "postalcode": 190001,
      "one_two": "-",
      "three": 327.294,
      "four": "-",
      "five_exec": "-",
      "subzone": "CITY HALL",
      "region": "CENTRAL"
    },
    {
      "Year": 2016,
      "Month": "Oct",
      "postalcode": 180001,
      "one_two": "-",
      "three": 327.869,
      "four": 352.476,
      "five_exec": "-",
      "subzone": "BUGIS",
      "region": "CENTRAL"
    },
    {
      "Year": 2016,
      "Month": "Oct",
      "postalcode": 180232,
      "one_two": "-",
      "three": "-",
      "four": 379.049,
      "five_exec": "-",
      "subzone": "BUGIS",
      "region": "CENTRAL"
    },
    {
      "Year": 2016,
      "Month": "Oct",
      "postalcode": 180233,
      "one_two": "-",
      "three": "-",
      "four": 411.562,
      "five_exec": "-",
      "subzone": "BUGIS",
      "region": "CENTRAL"
    },
    {
      "Year": 2016,
      "Month": "Oct",
      "postalcode": 181004,
      "one_two": "-",
      "three": 341.825,
      "four": 445.909,
      "five_exec": "-",
      "subzone": "BUGIS",
      "region": "CENTRAL"
    },
    {
      "Year": 2016,
      "Month": "Oct",
      "postalcode": 190001,
      "one_two": "-",
      "three": 372.118,
      "four": "-",
      "five_exec": "-",
      "subzone": "CITY HALL",
      "region": "CENTRAL"
    },
    {
      "Year": 2016,
      "Month": "Nov",
      "postalcode": 180001,
      "one_two": "-",
      "three": 174.481,
      "four": 207.389,
      "five_exec": "-",
      "subzone": "BUGIS",
      "region": "CENTRAL"
    },
    {
      "Year": 2016,
      "Month": "Nov",
      "postalcode": 180232,
      "one_two": "-",
      "three": "-",
      "four": 369.131,
      "five_exec": "-",
      "subzone": "BUGIS",
      "region": "CENTRAL"
    },
    {
      "Year": 2016,
      "Month": "Nov",
      "postalcode": 180233,
      "one_two": "-",
      "three": "-",
      "four": 416.451,
      "five_exec": "-",
      "subzone": "BUGIS",
      "region": "CENTRAL"
    },
    {
      "Year": 2016,
      "Month": "Nov",
      "postalcode": 181004,
      "one_two": "-",
      "three": 212.267,
      "four": 326.818,
      "five_exec": "-",
      "subzone": "BUGIS",
      "region": "CENTRAL"
    },
    {
      "Year": 2016,
      "Month": "Nov",
      "postalcode": 190001,
      "one_two": "-",
      "three": 357.191,
      "four": "-",
      "five_exec": "-",
      "subzone": "CITY HALL",
      "region": "CENTRAL"
    },
    {
      "Year": 2016,
      "Month": "Dec",
      "postalcode": 180001,
      "one_two": "-",
      "three": 258.865,
      "four": 323.909,
      "five_exec": "-",
      "subzone": "BUGIS",
      "region": "CENTRAL"
    },
    {
      "Year": 2016,
      "Month": "Dec",
      "postalcode": 180232,
      "one_two": "-",
      "three": "-",
      "four": 329.579,
      "five_exec": "-",
      "subzone": "BUGIS",
      "region": "CENTRAL"
    },
    {
      "Year": 2016,
      "Month": "Dec",
      "postalcode": 180233,
      "one_two": "-",
      "three": "-",
      "four": 319.333,
      "five_exec": "-",
      "subzone": "BUGIS",
      "region": "CENTRAL"
    },
    {
      "Year": 2016,
      "Month": "Dec",
      "postalcode": 181004,
      "one_two": "-",
      "three": 315.676,
      "four": 468,
      "five_exec": "-",
      "subzone": "BUGIS",
      "region": "CENTRAL"
    },
    {
      "Year": 2016,
      "Month": "Dec",
      "postalcode": 190001,
      "one_two": "-",
      "three": 359.471,
      "four": "-",
      "five_exec": "-",
      "subzone": "CITY HALL",
      "region": "CENTRAL"
    }
  ]