[
    {
      "Year": 2013,
      "Month": "Jan",
      "postalcode": 260005,
      "one_two": "-",
      "three": "-",
      "four": "-",
      "five_exec": 445.3,
      "subzone": "TYERSALL",
      "region": "CENTRAL"
    },
    {
      "Year": 2013,
      "Month": "Jan",
      "postalcode": 260006,
      "one_two": "-",
      "three": 515.3,
      "four": 411.7,
      "five_exec": "-",
      "subzone": "TYERSALL",
      "region": "CENTRAL"
    },
    {
      "Year": 2013,
      "Month": "Feb",
      "postalcode": 260005,
      "one_two": "-",
      "three": "-",
      "four": "-",
      "five_exec": 404.7,
      "subzone": "TYERSALL",
      "region": "CENTRAL"
    },
    {
      "Year": 2013,
      "Month": "Feb",
      "postalcode": 260006,
      "one_two": "-",
      "three": 260.6,
      "four": 355.8,
      "five_exec": "-",
      "subzone": "TYERSALL",
      "region": "CENTRAL"
    },
    {
      "Year": 2013,
      "Month": "Mar",
      "postalcode": 260005,
      "one_two": "-",
      "three": "-",
      "four": "-",
      "five_exec": 402.9,
      "subzone": "TYERSALL",
      "region": "CENTRAL"
    },
    {
      "Year": 2013,
      "Month": "Mar",
      "postalcode": 260006,
      "one_two": "-",
      "three": 315.4,
      "four": 359.4,
      "five_exec": "-",
      "subzone": "TYERSALL",
      "region": "CENTRAL"
    },
    {
      "Year": 2013,
      "Month": "Apr",
      "postalcode": 260005,
      "one_two": "-",
      "three": "-",
      "four": "-",
      "five_exec": 477.5,
      "subzone": "TYERSALL",
      "region": "CENTRAL"
    },
    {
      "Year": 2013,
      "Month": "Apr",
      "postalcode": 260006,
      "one_two": "-",
      "three": 343.6,
      "four": 447.8,
      "five_exec": "-",
      "subzone": "TYERSALL",
      "region": "CENTRAL"
    },
    {
      "Year": 2013,
      "Month": "May",
      "postalcode": 260005,
      "one_two": "-",
      "three": "-",
      "four": "-",
      "five_exec": 447.8,
      "subzone": "TYERSALL",
      "region": "CENTRAL"
    },
    {
      "Year": 2013,
      "Month": "May",
      "postalcode": 260006,
      "one_two": "-",
      "three": 291.4,
      "four": 401.2,
      "five_exec": "-",
      "subzone": "TYERSALL",
      "region": "CENTRAL"
    },
    {
      "Year": 2013,
      "Month": "Jun",
      "postalcode": 260005,
      "one_two": "-",
      "three": "-",
      "four": "-",
      "five_exec": 498,
      "subzone": "TYERSALL",
      "region": "CENTRAL"
    },
    {
      "Year": 2013,
      "Month": "Jun",
      "postalcode": 260006,
      "one_two": "-",
      "three": 312.9,
      "four": 387.7,
      "five_exec": "-",
      "subzone": "TYERSALL",
      "region": "CENTRAL"
    },
    {
      "Year": 2013,
      "Month": "Jul",
      "postalcode": 260005,
      "one_two": "-",
      "three": "-",
      "four": "-",
      "five_exec": 489.3,
      "subzone": "TYERSALL",
      "region": "CENTRAL"
    },
    {
      "Year": 2013,
      "Month": "Jul",
      "postalcode": 260006,
      "one_two": "-",
      "three": 291.2,
      "four": 399.3,
      "five_exec": "-",
      "subzone": "TYERSALL",
      "region": "CENTRAL"
    },
    {
      "Year": 2013,
      "Month": "Aug",
      "postalcode": 260005,
      "one_two": "-",
      "three": "-",
      "four": "-",
      "five_exec": 500.9,
      "subzone": "TYERSALL",
      "region": "CENTRAL"
    },
    {
      "Year": 2013,
      "Month": "Aug",
      "postalcode": 260006,
      "one_two": "-",
      "three": 361.6,
      "four": 420.5,
      "five_exec": "-",
      "subzone": "TYERSALL",
      "region": "CENTRAL"
    },
    {
      "Year": 2013,
      "Month": "Sep",
      "postalcode": 260005,
      "one_two": "-",
      "three": "-",
      "four": "-",
      "five_exec": 491.1,
      "subzone": "TYERSALL",
      "region": "CENTRAL"
    },
    {
      "Year": 2013,
      "Month": "Sep",
      "postalcode": 260006,
      "one_two": "-",
      "three": 352.4,
      "four": 415.8,
      "five_exec": "-",
      "subzone": "TYERSALL",
      "region": "CENTRAL"
    },
    {
      "Year": 2013,
      "Month": "Oct",
      "postalcode": 260005,
      "one_two": "-",
      "three": "-",
      "four": "-",
      "five_exec": 451.3,
      "subzone": "TYERSALL",
      "region": "CENTRAL"
    },
    {
      "Year": 2013,
      "Month": "Oct",
      "postalcode": 260006,
      "one_two": "-",
      "three": 392.3,
      "four": 405.2,
      "five_exec": "-",
      "subzone": "TYERSALL",
      "region": "CENTRAL"
    },
    {
      "Year": 2013,
      "Month": "Nov",
      "postalcode": 260005,
      "one_two": "-",
      "three": "-",
      "four": "-",
      "five_exec": 453.3,
      "subzone": "TYERSALL",
      "region": "CENTRAL"
    },
    {
      "Year": 2013,
      "Month": "Nov",
      "postalcode": 260006,
      "one_two": "-",
      "three": 355.3,
      "four": 394.1,
      "five_exec": "-",
      "subzone": "TYERSALL",
      "region": "CENTRAL"
    },
    {
      "Year": 2013,
      "Month": "Dec",
      "postalcode": 260005,
      "one_two": "-",
      "three": "-",
      "four": "-",
      "five_exec": 357.8,
      "subzone": "TYERSALL",
      "region": "CENTRAL"
    },
    {
      "Year": 2013,
      "Month": "Dec",
      "postalcode": 260006,
      "one_two": "-",
      "three": 249.9,
      "four": 361.7,
      "five_exec": "-",
      "subzone": "TYERSALL",
      "region": "CENTRAL"
    },
    {
      "Year": 2014,
      "Month": "Jan",
      "postalcode": 260005,
      "one_two": "-",
      "three": "-",
      "four": "-",
      "five_exec": 403.1,
      "subzone": "TYERSALL",
      "region": "CENTRAL"
    },
    {
      "Year": 2014,
      "Month": "Jan",
      "postalcode": 260006,
      "one_two": "-",
      "three": 292.1,
      "four": 371.4,
      "five_exec": "-",
      "subzone": "TYERSALL",
      "region": "CENTRAL"
    },
    {
      "Year": 2014,
      "Month": "Feb",
      "postalcode": 260005,
      "one_two": "-",
      "three": "-",
      "four": "-",
      "five_exec": 376.3,
      "subzone": "TYERSALL",
      "region": "CENTRAL"
    },
    {
      "Year": 2014,
      "Month": "Feb",
      "postalcode": 260006,
      "one_two": "-",
      "three": 273.9,
      "four": 330,
      "five_exec": "-",
      "subzone": "TYERSALL",
      "region": "CENTRAL"
    },
    {
      "Year": 2014,
      "Month": "Mar",
      "postalcode": 260005,
      "one_two": "-",
      "three": "-",
      "four": "-",
      "five_exec": 398.6,
      "subzone": "TYERSALL",
      "region": "CENTRAL"
    },
    {
      "Year": 2014,
      "Month": "Mar",
      "postalcode": 260006,
      "one_two": "-",
      "three": 299.1,
      "four": 366,
      "five_exec": "-",
      "subzone": "TYERSALL",
      "region": "CENTRAL"
    },
    {
      "Year": 2014,
      "Month": "Apr",
      "postalcode": 260005,
      "one_two": "-",
      "three": "-",
      "four": "-",
      "five_exec": 475.8,
      "subzone": "TYERSALL",
      "region": "CENTRAL"
    },
    {
      "Year": 2014,
      "Month": "Apr",
      "postalcode": 260006,
      "one_two": "-",
      "three": 440.9,
      "four": 445,
      "five_exec": "-",
      "subzone": "TYERSALL",
      "region": "CENTRAL"
    },
    {
      "Year": 2014,
      "Month": "May",
      "postalcode": 260005,
      "one_two": "-",
      "three": "-",
      "four": "-",
      "five_exec": 419,
      "subzone": "TYERSALL",
      "region": "CENTRAL"
    },
    {
      "Year": 2014,
      "Month": "May",
      "postalcode": 260006,
      "one_two": "-",
      "three": 363.9,
      "four": 388.9,
      "five_exec": "-",
      "subzone": "TYERSALL",
      "region": "CENTRAL"
    },
    {
      "Year": 2014,
      "Month": "Jun",
      "postalcode": 260005,
      "one_two": "-",
      "three": "-",
      "four": "-",
      "five_exec": 540.8,
      "subzone": "TYERSALL",
      "region": "CENTRAL"
    },
    {
      "Year": 2014,
      "Month": "Jun",
      "postalcode": 260006,
      "one_two": "-",
      "three": 440.5,
      "four": 457.8,
      "five_exec": "-",
      "subzone": "TYERSALL",
      "region": "CENTRAL"
    },
    {
      "Year": 2014,
      "Month": "Jul",
      "postalcode": 260005,
      "one_two": "-",
      "three": "-",
      "four": "-",
      "five_exec": 453,
      "subzone": "TYERSALL",
      "region": "CENTRAL"
    },
    {
      "Year": 2014,
      "Month": "Jul",
      "postalcode": 260006,
      "one_two": "-",
      "three": 376.4,
      "four": 406.9,
      "five_exec": "-",
      "subzone": "TYERSALL",
      "region": "CENTRAL"
    },
    {
      "Year": 2014,
      "Month": "Aug",
      "postalcode": 260005,
      "one_two": "-",
      "three": "-",
      "four": "-",
      "five_exec": 478,
      "subzone": "TYERSALL",
      "region": "CENTRAL"
    },
    {
      "Year": 2014,
      "Month": "Aug",
      "postalcode": 260006,
      "one_two": "-",
      "three": 411.9,
      "four": 436.9,
      "five_exec": "-",
      "subzone": "TYERSALL",
      "region": "CENTRAL"
    },
    {
      "Year": 2014,
      "Month": "Sep",
      "postalcode": 260005,
      "one_two": "-",
      "three": "-",
      "four": "-",
      "five_exec": 470.1,
      "subzone": "TYERSALL",
      "region": "CENTRAL"
    },
    {
      "Year": 2014,
      "Month": "Sep",
      "postalcode": 260006,
      "one_two": "-",
      "three": 427.6,
      "four": 455.2,
      "five_exec": "-",
      "subzone": "TYERSALL",
      "region": "CENTRAL"
    },
    {
      "Year": 2014,
      "Month": "Oct",
      "postalcode": 260005,
      "one_two": "-",
      "three": "-",
      "four": "-",
      "five_exec": 433.6,
      "subzone": "TYERSALL",
      "region": "CENTRAL"
    },
    {
      "Year": 2014,
      "Month": "Oct",
      "postalcode": 260006,
      "one_two": "-",
      "three": 385.3,
      "four": 394.3,
      "five_exec": "-",
      "subzone": "TYERSALL",
      "region": "CENTRAL"
    },
    {
      "Year": 2014,
      "Month": "Nov",
      "postalcode": 260005,
      "one_two": "-",
      "three": "-",
      "four": "-",
      "five_exec": 453,
      "subzone": "TYERSALL",
      "region": "CENTRAL"
    },
    {
      "Year": 2014,
      "Month": "Nov",
      "postalcode": 260006,
      "one_two": "-",
      "three": 403.1,
      "four": 425.4,
      "five_exec": "-",
      "subzone": "TYERSALL",
      "region": "CENTRAL"
    },
    {
      "Year": 2014,
      "Month": "Dec",
      "postalcode": 260005,
      "one_two": "-",
      "three": "-",
      "four": "-",
      "five_exec": 367.5,
      "subzone": "TYERSALL",
      "region": "CENTRAL"
    },
    {
      "Year": 2014,
      "Month": "Dec",
      "postalcode": 260006,
      "one_two": "-",
      "three": 316.4,
      "four": 373.5,
      "five_exec": "-",
      "subzone": "TYERSALL",
      "region": "CENTRAL"
    },
    {
      "Year": 2015,
      "Month": "Jan",
      "postalcode": 260005,
      "one_two": "-",
      "three": "-",
      "four": "-",
      "five_exec": 416.5,
      "subzone": "TYERSALL",
      "region": "CENTRAL"
    },
    {
      "Year": 2015,
      "Month": "Jan",
      "postalcode": 260006,
      "one_two": "-",
      "three": 329.2,
      "four": 399.8,
      "five_exec": "-",
      "subzone": "TYERSALL",
      "region": "CENTRAL"
    },
    {
      "Year": 2015,
      "Month": "Feb",
      "postalcode": 260005,
      "one_two": "-",
      "three": "-",
      "four": "-",
      "five_exec": 300.1,
      "subzone": "TYERSALL",
      "region": "CENTRAL"
    },
    {
      "Year": 2015,
      "Month": "Feb",
      "postalcode": 260006,
      "one_two": "-",
      "three": 250.3,
      "four": 294.6,
      "five_exec": "-",
      "subzone": "TYERSALL",
      "region": "CENTRAL"
    },
    {
      "Year": 2015,
      "Month": "Mar",
      "postalcode": 260005,
      "one_two": "-",
      "three": "-",
      "four": "-",
      "five_exec": 374.7,
      "subzone": "TYERSALL",
      "region": "CENTRAL"
    },
    {
      "Year": 2015,
      "Month": "Mar",
      "postalcode": 260006,
      "one_two": "-",
      "three": 302.8,
      "four": 368,
      "five_exec": "-",
      "subzone": "TYERSALL",
      "region": "CENTRAL"
    },
    {
      "Year": 2015,
      "Month": "Apr",
      "postalcode": 260005,
      "one_two": "-",
      "three": "-",
      "four": "-",
      "five_exec": 507.3,
      "subzone": "TYERSALL",
      "region": "CENTRAL"
    },
    {
      "Year": 2015,
      "Month": "Apr",
      "postalcode": 260006,
      "one_two": "-",
      "three": 437,
      "four": 453.3,
      "five_exec": "-",
      "subzone": "TYERSALL",
      "region": "CENTRAL"
    },
    {
      "Year": 2015,
      "Month": "May",
      "postalcode": 260005,
      "one_two": "-",
      "three": "-",
      "four": "-",
      "five_exec": 435.7,
      "subzone": "TYERSALL",
      "region": "CENTRAL"
    },
    {
      "Year": 2015,
      "Month": "May",
      "postalcode": 260006,
      "one_two": "-",
      "three": 365.3,
      "four": 395.3,
      "five_exec": "-",
      "subzone": "TYERSALL",
      "region": "CENTRAL"
    },
    {
      "Year": 2015,
      "Month": "Jun",
      "postalcode": 260005,
      "one_two": "-",
      "three": "-",
      "four": "-",
      "five_exec": 510.5,
      "subzone": "TYERSALL",
      "region": "CENTRAL"
    },
    {
      "Year": 2015,
      "Month": "Jun",
      "postalcode": 260006,
      "one_two": "-",
      "three": 318.6,
      "four": 391.4,
      "five_exec": "-",
      "subzone": "TYERSALL",
      "region": "CENTRAL"
    },
    {
      "Year": 2015,
      "Month": "July",
      "postalcode": 260005,
      "one_two": "-",
      "three": "-",
      "four": "-",
      "five_exec": 452.7,
      "subzone": "TYERSALL",
      "region": "CENTRAL"
    },
    {
      "Year": 2015,
      "Month": "July",
      "postalcode": 260006,
      "one_two": "-",
      "three": 326.8,
      "four": 388.4,
      "five_exec": "-",
      "subzone": "TYERSALL",
      "region": "CENTRAL"
    },
    {
      "Year": 2015,
      "Month": "Aug",
      "postalcode": 260005,
      "one_two": "-",
      "three": "-",
      "four": "-",
      "five_exec": 479.2,
      "subzone": "TYERSALL",
      "region": "CENTRAL"
    },
    {
      "Year": 2015,
      "Month": "Aug",
      "postalcode": 260006,
      "one_two": "-",
      "three": 315.2,
      "four": 420.8,
      "five_exec": "-",
      "subzone": "TYERSALL",
      "region": "CENTRAL"
    },
    {
      "Year": 2015,
      "Month": "Sep",
      "postalcode": 260005,
      "one_two": "-",
      "three": "-",
      "four": "-",
      "five_exec": 507.1,
      "subzone": "TYERSALL",
      "region": "CENTRAL"
    },
    {
      "Year": 2015,
      "Month": "Sep",
      "postalcode": 260006,
      "one_two": "-",
      "three": 348.7,
      "four": 436.1,
      "five_exec": "-",
      "subzone": "TYERSALL",
      "region": "CENTRAL"
    },
    {
      "Year": 2015,
      "Month": "Oct",
      "postalcode": 260005,
      "one_two": "-",
      "three": "-",
      "four": "-",
      "five_exec": 468.5,
      "subzone": "TYERSALL",
      "region": "CENTRAL"
    },
    {
      "Year": 2015,
      "Month": "Oct",
      "postalcode": 260006,
      "one_two": "-",
      "three": 299.1,
      "four": 416.9,
      "five_exec": "-",
      "subzone": "TYERSALL",
      "region": "CENTRAL"
    },
    {
      "Year": 2015,
      "Month": "Nov",
      "postalcode": 260005,
      "one_two": "-",
      "three": "-",
      "four": "-",
      "five_exec": 505.7,
      "subzone": "TYERSALL",
      "region": "CENTRAL"
    },
    {
      "Year": 2015,
      "Month": "Nov",
      "postalcode": 260006,
      "one_two": "-",
      "three": 339.8,
      "four": 442.7,
      "five_exec": "-",
      "subzone": "TYERSALL",
      "region": "CENTRAL"
    },
    {
      "Year": 2015,
      "Month": "Dec",
      "postalcode": 260005,
      "one_two": "-",
      "three": "-",
      "four": "-",
      "five_exec": 398.4,
      "subzone": "TYERSALL",
      "region": "CENTRAL"
    },
    {
      "Year": 2015,
      "Month": "Dec",
      "postalcode": 260006,
      "one_two": "-",
      "three": 275.3,
      "four": 366.9,
      "five_exec": "-",
      "subzone": "TYERSALL",
      "region": "CENTRAL"
    },
    {
      "Year": 2016,
      "Month": "Jan",
      "postalcode": 260005,
      "one_two": "-",
      "three": "-",
      "four": "-",
      "five_exec": 444.789,
      "subzone": "TYERSALL",
      "region": "CENTRAL"
    },
    {
      "Year": 2016,
      "Month": "Jan",
      "postalcode": 260006,
      "one_two": "-",
      "three": 261,
      "four": 407.833,
      "five_exec": "-",
      "subzone": "TYERSALL",
      "region": "CENTRAL"
    },
    {
      "Year": 2016,
      "Month": "Feb",
      "postalcode": 260005,
      "one_two": "-",
      "three": "-",
      "four": "-",
      "five_exec": 429.105,
      "subzone": "TYERSALL",
      "region": "CENTRAL"
    },
    {
      "Year": 2016,
      "Month": "Feb",
      "postalcode": 260006,
      "one_two": "-",
      "three": 370.688,
      "four": 391.014,
      "five_exec": "-",
      "subzone": "TYERSALL",
      "region": "CENTRAL"
    },
    {
      "Year": 2016,
      "Month": "Mar",
      "postalcode": 260005,
      "one_two": "-",
      "three": "-",
      "four": "-",
      "five_exec": 401.579,
      "subzone": "TYERSALL",
      "region": "CENTRAL"
    },
    {
      "Year": 2016,
      "Month": "Mar",
      "postalcode": 260006,
      "one_two": "-",
      "three": 317.313,
      "four": 359.278,
      "five_exec": "-",
      "subzone": "TYERSALL",
      "region": "CENTRAL"
    },
    {
      "Year": 2016,
      "Month": "Apr",
      "postalcode": 260005,
      "one_two": "-",
      "three": "-",
      "four": "-",
      "five_exec": 466,
      "subzone": "TYERSALL",
      "region": "CENTRAL"
    },
    {
      "Year": 2016,
      "Month": "Apr",
      "postalcode": 260006,
      "one_two": "-",
      "three": 252.056,
      "four": 395.959,
      "five_exec": "-",
      "subzone": "TYERSALL",
      "region": "CENTRAL"
    },
    {
      "Year": 2016,
      "Month": "May",
      "postalcode": 260005,
      "one_two": "-",
      "three": "-",
      "four": "-",
      "five_exec": 459.143,
      "subzone": "TYERSALL",
      "region": "CENTRAL"
    },
    {
      "Year": 2016,
      "Month": "May",
      "postalcode": 260006,
      "one_two": "-",
      "three": 300.941,
      "four": 400.438,
      "five_exec": "-",
      "subzone": "TYERSALL",
      "region": "CENTRAL"
    },
    {
      "Year": 2016,
      "Month": "Jun",
      "postalcode": 260005,
      "one_two": "-",
      "three": "-",
      "four": "-",
      "five_exec": 516.132,
      "subzone": "TYERSALL",
      "region": "CENTRAL"
    },
    {
      "Year": 2016,
      "Month": "Jun",
      "postalcode": 260006,
      "one_two": "-",
      "three": 404.938,
      "four": 424.122,
      "five_exec": "-",
      "subzone": "TYERSALL",
      "region": "CENTRAL"
    },
    {
      "Year": 2016,
      "Month": "Jul",
      "postalcode": 260005,
      "one_two": "-",
      "three": "-",
      "four": "-",
      "five_exec": 467.868,
      "subzone": "TYERSALL",
      "region": "CENTRAL"
    },
    {
      "Year": 2016,
      "Month": "Jul",
      "postalcode": 260006,
      "one_two": "-",
      "three": 357.75,
      "four": 401.5,
      "five_exec": "-",
      "subzone": "TYERSALL",
      "region": "CENTRAL"
    },
    {
      "Year": 2016,
      "Month": "Aug",
      "postalcode": 260005,
      "one_two": "-",
      "three": "-",
      "four": "-",
      "five_exec": 458.747,
      "subzone": "TYERSALL",
      "region": "CENTRAL"
    },
    {
      "Year": 2016,
      "Month": "Aug",
      "postalcode": 260006,
      "one_two": "-",
      "three": 340.688,
      "four": 389.486,
      "five_exec": "-",
      "subzone": "TYERSALL",
      "region": "CENTRAL"
    },
    {
      "Year": 2016,
      "Month": "Sep",
      "postalcode": 260005,
      "one_two": "-",
      "three": "-",
      "four": "-",
      "five_exec": 467.553,
      "subzone": "TYERSALL",
      "region": "CENTRAL"
    },
    {
      "Year": 2016,
      "Month": "Sep",
      "postalcode": 260006,
      "one_two": "-",
      "three": 366.125,
      "four": 407.041,
      "five_exec": "-",
      "subzone": "TYERSALL",
      "region": "CENTRAL"
    },
    {
      "Year": 2016,
      "Month": "Oct",
      "postalcode": 260005,
      "one_two": "-",
      "three": "-",
      "four": "-",
      "five_exec": 426.789,
      "subzone": "TYERSALL",
      "region": "CENTRAL"
    },
    {
      "Year": 2016,
      "Month": "Oct",
      "postalcode": 260006,
      "one_two": "-",
      "three": 384.75,
      "four": 385.521,
      "five_exec": "-",
      "subzone": "TYERSALL",
      "region": "CENTRAL"
    },
    {
      "Year": 2016,
      "Month": "Nov",
      "postalcode": 260005,
      "one_two": "-",
      "three": "-",
      "four": "-",
      "five_exec": 475.987,
      "subzone": "TYERSALL",
      "region": "CENTRAL"
    },
    {
      "Year": 2016,
      "Month": "Nov",
      "postalcode": 260006,
      "one_two": "-",
      "three": 396.75,
      "four": 418.77,
      "five_exec": "-",
      "subzone": "TYERSALL",
      "region": "CENTRAL"
    },
    {
      "Year": 2016,
      "Month": "Dec",
      "postalcode": 260005,
      "one_two": "-",
      "three": "-",
      "four": "-",
      "five_exec": 358.013,
      "subzone": "TYERSALL",
      "region": "CENTRAL"
    },
    {
      "Year": 2016,
      "Month": "Dec",
      "postalcode": 260006,
      "one_two": "-",
      "three": 294.25,
      "four": 315.373,
      "five_exec": "-",
      "subzone": "TYERSALL",
      "region": "CENTRAL"
    }
  ]